ONEWEB-0161             
1 48053U 21025M   26056.18787507 -.00000256  00000+0 -73574-3 0  9995
2 48053  87.9036 342.4930 0001950  77.9389 282.1958 13.13469070238808
ONEWEB-0158             
1 48054U 21025N   26056.14725019  .00000111  00000+0  26806-3 0  9996
2 48054  87.9047 342.4903 0001476  84.3761 275.7536 13.13469522238925
ONEWEB-0157             
1 48055U 21025P   26056.17264020  .00000263  00000+0  68518-3 0  9994
2 48055  87.9046 342.4905 0002185  81.9428 278.1949 13.13468606238868
ONEWEB-0162             
1 48056U 21025Q   26056.14880994  .00000162  00000+0  40800-3 0  9998
2 48056  87.9049 342.4988 0001849  75.1562 284.9772 13.13471687238832
ONEWEB-0155             
1 48057U 21025R   26056.15571082  .00000000  00000+0 -35991-4 0  9993
2 48057  87.9038 342.4979 0001875  83.6728 276.4614 13.13469796238972
ONEWEB-0149             
1 48058U 21025S   26056.17771708  .00000185  00000+0  47137-3 0  9990
2 48058  87.9047 342.4898 0001867  73.1500 286.9834 13.13468410238787
ONEWEB-0148             
1 48059U 21025T   26055.75959586 -.00000030  00000+0 -11579-3 0  9998
2 48059  87.9039 342.5875 0002168  65.5126 294.6229 13.13470264238851
ONEWEB-0160             
1 48060U 21025U   26056.15740418  .00000155  00000+0  39052-3 0  9999
2 48060  87.9036 342.5055 0000977  77.1187 283.0051 13.13469146238854
ONEWEB-0163             
1 48061U 21025V   26056.06599248 -.00000110  00000+0 -33748-3 0  9992
2 48061  87.9048 342.5144 0002107  80.2920 279.8447 13.13470134238967
ONEWEB-0159             
1 48062U 21025W   26056.05751405 -.00000228  00000+0 -65819-3 0  9991
2 48062  87.9051 342.5025 0001989  76.8024 283.3327 13.13468659238880
ONEWEB-0164             
1 48063U 21025X   26055.73418784 -.00000371  00000+0 -10512-2 0  9994
2 48063  87.9049 342.5737 0001699  79.2523 280.8797 13.13469227238826
ONEWEB-0167             
1 48064U 21025Y   26056.06684237  .00000047  00000+0  93889-4 0  9998
2 48064  87.9039 342.5274 0002177  95.7155 264.4223 13.13471232238852
ONEWEB-0166             
1 48065U 21025Z   26056.16586956  .00000285  00000+0  74672-3 0  9991
2 48065  87.9045 342.4702 0001921  74.5560 285.5781 13.13468558238946
ONEWEB-0151             
1 48066U 21025AA  26056.16756324  .00000095  00000+0  22633-3 0  9999
2 48066  87.9041 342.4965 0001778  83.3786 276.7545 13.13469497238888
ONEWEB-0170             
1 48067U 21025AB  26056.17602332  .00000217  00000+0  55916-3 0  9996
2 48067  87.9040 342.4964 0001447  91.1545 268.9750 13.13468991238845
ONEWEB-0168             
1 48068U 21025AC  26056.16079332  .00000193  00000+0  49329-3 0  9998
2 48068  87.9046 342.4895 0001955  80.6068 279.5282 13.13468014238857
ONEWEB-0173             
1 48069U 21025AD  26056.15233280 -.00000182  00000+0 -53193-3 0  9996
2 48069  87.9043 342.4986 0002080  85.6534 274.4832 13.13469375239092
