[{"OBJECT_NAME":"ONEWEB-0161","OBJECT_ID":"2021-025M","EPOCH":"2026-02-25T04:30:32.406048","MEAN_MOTION":13.1346907,"ECCENTRICITY":0.000195,"INCLINATION":87.9036,"RA_OF_ASC_NODE":342.493,"ARG_OF_PERICENTER":77.9389,"MEAN_ANOMALY":282.1958,"EPHEMERIS_TYPE":0,"CLASSIFICATION_TYPE":"U","NORAD_CAT_ID":48053,"ELEMENT_SET_NO":999,"REV_AT_EPOCH":23880,"BSTAR":-0.00073574,"MEAN_MOTION_DOT":-2.56e-6,"MEAN_MOTION_DDOT":0},{"OBJECT_NAME":"ONEWEB-0158","OBJECT_ID":"2021-025N","EPOCH":"2026-02-25T03:32:02.416416","MEAN_MOTION":13.13469522,"ECCENTRICITY":0.0001476,"INCLINATION":87.9047,"RA_OF_ASC_NODE":342.4903,"ARG_OF_PERICENTER":84.3761,"MEAN_ANOMALY":275.7536,"EPHEMERIS_TYPE":0,"CLASSIFICATION_TYPE":"U","NORAD_CAT_ID":48054,"ELEMENT_SET_NO":999,"REV_AT_EPOCH":23892,"BSTAR":0.00026806,"MEAN_MOTION_DOT":1.11e-6,"MEAN_MOTION_DDOT":0},{"OBJECT_NAME":"ONEWEB-0157","OBJECT_ID":"2021-025P","EPOCH":"2026-02-25T04:08:36.113280","MEAN_MOTION":13.13468606,"ECCENTRICITY":0.0002185,"INCLINATION":87.9046,"RA_OF_ASC_NODE":342.4905,"ARG_OF_PERICENTER":81.9428,"MEAN_ANOMALY":278.1949,"EPHEMERIS_TYPE":0,"CLASSIFICATION_TYPE":"U","NORAD_CAT_ID":48055,"ELEMENT_SET_NO":999,"REV_AT_EPOCH":23886,"BSTAR":0.00068518,"MEAN_MOTION_DOT":2.63e-6,"MEAN_MOTION_DDOT":0},{"OBJECT_NAME":"ONEWEB-0162","OBJECT_ID":"2021-025Q","EPOCH":"2026-02-25T03:34:17.178816","MEAN_MOTION":13.13471687,"ECCENTRICITY":0.0001849,"INCLINATION":87.9049,"RA_OF_ASC_NODE":342.4988,"ARG_OF_PERICENTER":75.1562,"MEAN_ANOMALY":284.9772,"EPHEMERIS_TYPE":0,"CLASSIFICATION_TYPE":"U","NORAD_CAT_ID":48056,"ELEMENT_SET_NO":999,"REV_AT_EPOCH":23883,"BSTAR":0.000408,"MEAN_MOTION_DOT":1.62e-6,"MEAN_MOTION_DDOT":0},{"OBJECT_NAME":"ONEWEB-0155","OBJECT_ID":"2021-025R","EPOCH":"2026-02-25T03:44:13.414848","MEAN_MOTION":13.13469796,"ECCENTRICITY":0.0001875,"INCLINATION":87.9038,"RA_OF_ASC_NODE":342.4979,"ARG_OF_PERICENTER":83.6728,"MEAN_ANOMALY":276.4614,"EPHEMERIS_TYPE":0,"CLASSIFICATION_TYPE":"U","NORAD_CAT_ID":48057,"ELEMENT_SET_NO":999,"REV_AT_EPOCH":23897,"BSTAR":-3.5991e-5,"MEAN_MOTION_DOT":0,"MEAN_MOTION_DDOT":0},{"OBJECT_NAME":"ONEWEB-0149","OBJECT_ID":"2021-025S","EPOCH":"2026-02-25T04:15:54.755712","MEAN_MOTION":13.1346841,"ECCENTRICITY":0.0001867,"INCLINATION":87.9047,"RA_OF_ASC_NODE":342.4898,"ARG_OF_PERICENTER":73.15,"MEAN_ANOMALY":286.9834,"EPHEMERIS_TYPE":0,"CLASSIFICATION_TYPE":"U","NORAD_CAT_ID":48058,"ELEMENT_SET_NO":999,"REV_AT_EPOCH":23878,"BSTAR":0.00047137,"MEAN_MOTION_DOT":1.85e-6,"MEAN_MOTION_DDOT":0},{"OBJECT_NAME":"ONEWEB-0148","OBJECT_ID":"2021-025T","EPOCH":"2026-02-24T18:13:49.082304","MEAN_MOTION":13.13470264,"ECCENTRICITY":0.00021688,"INCLINATION":87.9039,"RA_OF_ASC_NODE":342.5875,"ARG_OF_PERICENTER":65.5126,"MEAN_ANOMALY":294.6229,"EPHEMERIS_TYPE":0,"CLASSIFICATION_TYPE":"U","NORAD_CAT_ID":48059,"ELEMENT_SET_NO":999,"REV_AT_EPOCH":23885,"BSTAR":-0.00011579163,"MEAN_MOTION_DOT":-3.0e-7,"MEAN_MOTION_DDOT":0},{"OBJECT_NAME":"ONEWEB-0160","OBJECT_ID":"2021-025U","EPOCH":"2026-02-25T03:46:39.721152","MEAN_MOTION":13.13469146,"ECCENTRICITY":9.77e-5,"INCLINATION":87.9036,"RA_OF_ASC_NODE":342.5055,"ARG_OF_PERICENTER":77.1187,"MEAN_ANOMALY":283.0051,"EPHEMERIS_TYPE":0,"CLASSIFICATION_TYPE":"U","NORAD_CAT_ID":48060,"ELEMENT_SET_NO":999,"REV_AT_EPOCH":23885,"BSTAR":0.00039052,"MEAN_MOTION_DOT":1.55e-6,"MEAN_MOTION_DDOT":0},{"OBJECT_NAME":"ONEWEB-0163","OBJECT_ID":"2021-025V","EPOCH":"2026-02-25T01:35:01.750272","MEAN_MOTION":13.13470134,"ECCENTRICITY":0.0002107,"INCLINATION":87.9048,"RA_OF_ASC_NODE":342.5144,"ARG_OF_PERICENTER":80.292,"MEAN_ANOMALY":279.8447,"EPHEMERIS_TYPE":0,"CLASSIFICATION_TYPE":"U","NORAD_CAT_ID":48061,"ELEMENT_SET_NO":999,"REV_AT_EPOCH":23896,"BSTAR":-0.00033748,"MEAN_MOTION_DOT":-1.1e-6,"MEAN_MOTION_DDOT":0},{"OBJECT_NAME":"ONEWEB-0159","OBJECT_ID":"2021-025W","EPOCH":"2026-02-25T01:22:49.213920","MEAN_MOTION":13.13468659,"ECCENTRICITY":0.0001989,"INCLINATION":87.9051,"RA_OF_ASC_NODE":342.5025,"ARG_OF_PERICENTER":76.8024,"MEAN_ANOMALY":283.3327,"EPHEMERIS_TYPE":0,"CLASSIFICATION_TYPE":"U","NORAD_CAT_ID":48062,"ELEMENT_SET_NO":999,"REV_AT_EPOCH":23888,"BSTAR":-0.00065819,"MEAN_MOTION_DOT":-2.28e-6,"MEAN_MOTION_DDOT":0},{"OBJECT_NAME":"ONEWEB-0164","OBJECT_ID":"2021-025X","EPOCH":"2026-02-24T17:37:13.829376","MEAN_MOTION":13.13469227,"ECCENTRICITY":0.00016993,"INCLINATION":87.9049,"RA_OF_ASC_NODE":342.5737,"ARG_OF_PERICENTER":79.2523,"MEAN_ANOMALY":280.8797,"EPHEMERIS_TYPE":0,"CLASSIFICATION_TYPE":"U","NORAD_CAT_ID":48063,"ELEMENT_SET_NO":999,"REV_AT_EPOCH":23882,"BSTAR":-0.0010511598,"MEAN_MOTION_DOT":-3.71e-6,"MEAN_MOTION_DDOT":0},{"OBJECT_NAME":"ONEWEB-0167","OBJECT_ID":"2021-025Y","EPOCH":"2026-02-25T01:36:15.180768","MEAN_MOTION":13.13471232,"ECCENTRICITY":0.0002177,"INCLINATION":87.9039,"RA_OF_ASC_NODE":342.5274,"ARG_OF_PERICENTER":95.7155,"MEAN_ANOMALY":264.4223,"EPHEMERIS_TYPE":0,"CLASSIFICATION_TYPE":"U","NORAD_CAT_ID":48064,"ELEMENT_SET_NO":999,"REV_AT_EPOCH":23885,"BSTAR":9.3889e-5,"MEAN_MOTION_DOT":4.7e-7,"MEAN_MOTION_DDOT":0},{"OBJECT_NAME":"ONEWEB-0166","OBJECT_ID":"2021-025Z","EPOCH":"2026-02-25T03:58:51.129984","MEAN_MOTION":13.13468558,"ECCENTRICITY":0.0001921,"INCLINATION":87.9045,"RA_OF_ASC_NODE":342.4702,"ARG_OF_PERICENTER":74.556,"MEAN_ANOMALY":285.5781,"EPHEMERIS_TYPE":0,"CLASSIFICATION_TYPE":"U","NORAD_CAT_ID":48065,"ELEMENT_SET_NO":999,"REV_AT_EPOCH":23894,"BSTAR":0.00074672,"MEAN_MOTION_DOT":2.85e-6,"MEAN_MOTION_DDOT":0},{"OBJECT_NAME":"ONEWEB-0151","OBJECT_ID":"2021-025AA","EPOCH":"2026-02-25T04:01:17.463936","MEAN_MOTION":13.13469497,"ECCENTRICITY":0.0001778,"INCLINATION":87.9041,"RA_OF_ASC_NODE":342.4965,"ARG_OF_PERICENTER":83.3786,"MEAN_ANOMALY":276.7545,"EPHEMERIS_TYPE":0,"CLASSIFICATION_TYPE":"U","NORAD_CAT_ID":48066,"ELEMENT_SET_NO":999,"REV_AT_EPOCH":23888,"BSTAR":0.00022633,"MEAN_MOTION_DOT":9.5e-7,"MEAN_MOTION_DDOT":0},{"OBJECT_NAME":"ONEWEB-0170","OBJECT_ID":"2021-025AB","EPOCH":"2026-02-25T04:13:28.414848","MEAN_MOTION":13.13468991,"ECCENTRICITY":0.0001447,"INCLINATION":87.904,"RA_OF_ASC_NODE":342.4964,"ARG_OF_PERICENTER":91.1545,"MEAN_ANOMALY":268.975,"EPHEMERIS_TYPE":0,"CLASSIFICATION_TYPE":"U","NORAD_CAT_ID":48067,"ELEMENT_SET_NO":999,"REV_AT_EPOCH":23884,"BSTAR":0.00055916,"MEAN_MOTION_DOT":2.17e-6,"MEAN_MOTION_DDOT":0},{"OBJECT_NAME":"ONEWEB-0168","OBJECT_ID":"2021-025AC","EPOCH":"2026-02-25T03:51:32.542848","MEAN_MOTION":13.13468014,"ECCENTRICITY":0.0001955,"INCLINATION":87.9046,"RA_OF_ASC_NODE":342.4895,"ARG_OF_PERICENTER":80.6068,"MEAN_ANOMALY":279.5282,"EPHEMERIS_TYPE":0,"CLASSIFICATION_TYPE":"U","NORAD_CAT_ID":48068,"ELEMENT_SET_NO":999,"REV_AT_EPOCH":23885,"BSTAR":0.00049329,"MEAN_MOTION_DOT":1.93e-6,"MEAN_MOTION_DDOT":0},{"OBJECT_NAME":"ONEWEB-0173","OBJECT_ID":"2021-025AD","EPOCH":"2026-02-25T03:39:21.553920","MEAN_MOTION":13.13469375,"ECCENTRICITY":0.000208,"INCLINATION":87.9043,"RA_OF_ASC_NODE":342.4986,"ARG_OF_PERICENTER":85.6534,"MEAN_ANOMALY":274.4832,"EPHEMERIS_TYPE":0,"CLASSIFICATION_TYPE":"U","NORAD_CAT_ID":48069,"ELEMENT_SET_NO":999,"REV_AT_EPOCH":23909,"BSTAR":-0.00053193,"MEAN_MOTION_DOT":-1.82e-6,"MEAN_MOTION_DDOT":0}]
